STARLINK-2391_new
1 17810C 21018Z   21326.18323045 -.00023449  00000-0 -15710-2 0  3266
2 17810  53.0536 102.9258 0001323  80.5135  48.5100 15.06423397    11
STARLINK-2391_old
1 27810C 21018Z   21325.03717639  .00002041  00000-0  13671-3 0  3252
2 27810  53.0537 108.0703 0001303  79.8824 310.5596 15.06406876    12
